[{"OBJECT_NAME":"REAL","OBJECT_ID":"2025-154G","EPOCH":"2026-03-09T17:20:09.670560","MEAN_MOTION":15.28408058,"ECCENTRICITY":0.00018528,"INCLINATION":97.4133,"RA_OF_ASC_NODE":137.2581,"ARG_OF_PERICENTER":118.5876,"MEAN_ANOMALY":241.555,"EPHEMERIS_TYPE":0,"CLASSIFICATION_TYPE":"U","NORAD_CAT_ID":64875,"ELEMENT_SET_NO":999,"REV_AT_EPOCH":3483,"BSTAR":0.0008290401,"MEAN_MOTION_DOT":0.00022901,"MEAN_MOTION_DDOT":0},{"OBJECT_NAME":"STARLINK-35754","OBJECT_ID":"2025-294AA","EPOCH":"2026-03-09T23:24:33.251904","MEAN_MOTION":15.27592727,"ECCENTRICITY":0.00010505,"INCLINATION":43.0022,"RA_OF_ASC_NODE":36.3933,"ARG_OF_PERICENTER":251.6572,"MEAN_ANOMALY":108.4166,"EPHEMERIS_TYPE":0,"CLASSIFICATION_TYPE":"U","NORAD_CAT_ID":67054,"ELEMENT_SET_NO":999,"REV_AT_EPOCH":1484,"BSTAR":0.00084834963,"MEAN_MOTION_DOT":0.00023165,"MEAN_MOTION_DDOT":0}]
